30/06/2020 10:30:00Z
METAR WAAA 301030Z VRB02KT 8000 FEW020 27/24 Q1009 NOSIG=