08/07/2020 02:00:00Z
METAR WAAA 080200Z 32003KT 230V010 9999 FEW020 29/25 Q1009 NOSIG=