30/06/2020 10:00:00Z
METAR WADB 301000Z 14010KT 8000 FEW015 28/23 Q1009 NOSIG=