08/07/2020 02:00:00Z
METAR WADY 080200Z 12007KT 8000 FEW018TCU FEW018 28/24 Q1012 NOSIG=