30/06/2020 10:00:00Z
METAR WAEL 301000Z 00000KT 8000 FEW017CB SCT018 28/24 Q1008=