30/06/2020 10:30:00Z
METAR WAFF 301030Z 02009KT 9999 FEW019 28/24 Q1009 NOSIG=