30/06/2020 10:00:00Z
METAR WAFM 301000Z 01007KT 7000 FEW016CB BKN090 27/23 Q1009=