08/07/2020 02:00:00Z
METAR WAFM 080200Z 12002KT 8000 FEW017 BKN090 27/24 Q1010=