08/07/2020 01:00:00Z
METAR WAFP 080100Z 00000KT 9000 FEW016 SCT060 29/25 Q1010=