08/07/2020 02:00:00Z
METAR WAFT 080200Z 07003KT 6000 SCT013 BKN100 22/20 Q1010=