22/06/2020 00:00:00Z
METAR WAFW 220000Z VRB02KT 6000 RA FEW016 BKN042 26/24 Q1010 NOSIG=