30/06/2020 10:00:00Z
METAR WAGI 301000Z 00000KT 9000 FEW011CB BKN011 27/25 Q1008 NOSIG RMK CB TO NW=