08/07/2020 02:00:00Z
METAR WAGS 080200Z 12005KT 9000 BKN009 29/25 Q1009 NOSIG=