30/06/2020 10:30:00Z
METAR WAGS 301030Z 16003KT 7000 VCSH FEW008TCU SCT009 27/25 Q1008 NOSIG=