08/07/2020 02:00:00Z
METAR WAHI 080200Z 13010KT 9999 FEW018 27/23 Q1011 NOSIG=