30/06/2020 10:00:00Z
METAR WAHI 301000Z 14014KT CAVOK 27/23 Q1009 NOSIG=