30/06/2020 09:00:00Z
METAR WAHL 300900Z 14012KT 100V160 9999 SCT014 28/23 Q1009 NOSIG=