08/07/2020 02:00:00Z
METAR WAHS 080200Z AUTO 03003KT 320V110 5000 NCD 28/22 Q1010=