30/06/2020 06:00:00Z
METAR WAKT 300600Z 12002KT 8000 FEW009 SCT010 27/26 Q1008=