07/07/2020 04:00:00Z
METAR WAKT 070400Z 14005KT 9000 SCT010 28/25 Q1010=