30/06/2020 10:30:00Z
METAR WAMM 301030Z VRB01KT 9999 FEW022 27/23 Q1009 NOSIG=