30/06/2020 09:00:00Z
METAR WAPL 300900Z 00000KT 6000 BKN018 24/24 Q1009 RERA=