08/07/2020 02:00:00Z
METAR WAQA 080200Z 26004KT 8000 SCT010 27/25 Q1010=