30/06/2020 10:00:00Z
METAR WAQD 301000Z 12004KT 8000 SCT015 30/24 Q1007 NOSIG=