08/07/2020 02:00:00Z
METAR WAQD 080200Z 00000KT 4000 -RA FEW014CB BKN015 24/23 Q1010 RMK CB TO S=