07/07/2020 10:00:00Z
METAR WAQJ 071000Z 00000KT 7000 -DZ BKN014 24/21 Q1015=