08/07/2020 02:00:00Z
METAR WAQQ 080200Z 06004KT 8000 -RA BKN015 26/25 Q1010=