08/07/2020 02:00:00Z
METAR WAQT 080200Z 21004KT 5000 -RA OVC009 25/24 Q1012=