30/06/2020 09:00:00Z
METAR WASK 300900Z 17004KT 8000 FEW015 27/24 Q1008=