08/07/2020 01:00:00Z
METAR WASK 080100Z 17008KT 9000 FEW015 28/25 Q1009=