08/07/2020 02:00:00Z
METAR WASS 080200Z AUTO 16005KT 9000 SCT012 29/25 Q1008=