30/06/2020 10:30:00Z
METAR WATC 301030Z 21005KT 9999 FEW018 27/21 Q1011 NOSIG=