08/07/2020 01:00:00Z
METAR WATK 080100Z 12006KT 9999 FEW020 29/20 Q1013 NOSIG=