30/06/2020 10:00:00Z
METAR WATO 301000Z 03003KT 8000 FEW020 27/22 Q1011 NOSIG=