30/06/2020 10:00:00Z
METAR WAUU 301000Z 00000KT 7000 SCT014 28/24 Q1008 NOSIG=