08/07/2020 01:00:00Z
METAR WAUU 080100Z 00000KT 5000 VCSH SCT014 28/25 Q1009=