08/07/2020 02:00:00Z
METAR WAVV 080200Z 32002KT 9999 SCT020 24/17 Q1019=