30/06/2020 10:30:00Z
METAR WAWW 301030Z 28004KT 8000 FEW016 26/25 Q1011 NOSIG=