08/07/2020 02:00:00Z
METAR WAYY 080200Z 08010KT 8000 BKN013 26/24 Q1010=