30/06/2020 10:30:00Z
METAR WIBB 301030Z 19006KT 8000 FEW015 31/23 Q1005=