08/07/2020 02:00:00Z
METAR WIBB 080200Z 00000KT 8000 FEW010 26/23 Q1009=