08/07/2020 02:00:00Z
METAR WICM 080200Z 09005KT 4000 HZ SCT015 24/23 Q1014 NOSIG=