08/07/2020 02:00:00Z
METAR WICS 080200Z 09002KT 6000 FEW020 27/25 Q1010 NOSIG=