30/06/2020 06:00:00Z
METAR WICS 300600Z 03004KT 9000 FEW020 32/22 Q1009 NOSIG=