30/06/2020 10:30:00Z
METAR WIDD 301030Z 15011KT 9999 SCT143 30/25 Q1009=