08/07/2020 02:00:00Z
METAR WIDD 080200Z 21006KT 9999 FEW014 28/24 Q1012=