30/06/2020 10:30:00Z
METAR WIDN 301030Z 14005KT 9000 SCT015 28/25 Q1008 RERA=