08/07/2020 02:00:00Z
METAR WIDT 080200Z 25006KT 9000 SCT017 BKN300 28/25 Q1010=