30/06/2020 09:00:00Z
METAR WIDT 300900Z 10009KT 9000 FEW017 BKN300 32/25 Q1006=