30/06/2020 10:30:00Z
METAR WIHH 301030Z 06012KT 5000 HZ FEW022 31/23 Q1008 NOSIG=