30/06/2020 04:00:00Z
METAR WIHJ 300400Z 06007KT 5000 HZ FEW018 32/21 Q1009 NOSIG=