30/06/2020 06:00:00Z
METAR WIJI 300600Z 14007KT 5000 SCT014 26/22 Q1012=