08/07/2020 02:00:00Z
METAR WIJJ 080200Z 25003KT 9999 SCT010 26/24 Q1010 NOSIG=