08/07/2020 02:00:00Z
METAR WIKK 080200Z 13009KT 9000 FEW014CB SCT015 29/25 Q1009 NOSIG RMK CB TO N=