08/07/2020 02:00:00Z
METAR WILL 080200Z 22002KT 9999 FEW015 27/25 Q1010=