08/07/2020 01:00:00Z
METAR WIMA 080100Z 26004KT 7000 FEW017 26/23 Q1010=