30/06/2020 10:00:00Z
METAR WIMB 301000Z 24003KT 6000 -TSRA FEW013CB FEW015 29/25 Q1006 RMK CB OVER THE FIELD=