08/07/2020 02:00:00Z
METAR WIMM 080200Z 20003KT 6000 FEW017 28/25 Q1009 NOSIG=