08/07/2020 02:00:00Z
METAR WIMN 080200Z 22008KT 7000 BKN005 19/17 Q1019 NOSIG=