08/07/2020 00:00:00Z
METAR WIOI 080000Z 06003KT 5000 SCT1600FT 25/24 Q1002=