30/06/2020 09:00:00Z
METAR WIOP 300900Z 29005KT 8000 SCT015TCU 29/24 Q1009=