30/06/2020 10:30:00Z
METAR WIRR 301030Z AUTO 35006KT 8000 NCD 29/23 Q1008=