30/06/2020 10:00:00Z
METAR WITC 301000Z 21002KT 8000 SCT020 31/23 Q1006=