29/06/2020 16:00:00Z
METAR WABB 291600Z 30003KT 8000 BKN018 OVC090 24/24 Q1010 NOSIG=