04/07/2020 12:00:00Z
METAR WABO 041200Z 00000KT 6000 FEW013 SCT110 26/24 Q1009=