29/06/2020 16:00:00Z
METAR WADB 291600Z 00000KT 6000 FEW015 25/22 Q1012 NOSIG=