08/07/2020 02:00:00Z
METAR WADB 080200Z 15013KT 9999 FEW015 29/23 Q1011 NOSIG=