30/06/2020 10:30:00Z
METAR WADL 301030Z 15008KT 8000 BKN016 26/22 Q1011 NOSIG=