29/06/2020 16:00:00Z
METAR WADL 291600Z 12002KT 7000 SCT016 25/23 Q1012 NOSIG=