08/07/2020 02:00:00Z
METAR WADL 080200Z 12016KT 7000 BKN016 29/23 Q1012 NOSIG=