08/07/2020 02:00:00Z
METAR WADS 080200Z 15007KT 9999 FEW020 30/21 Q1010=