30/06/2020 10:00:00Z
METAR WADY 301000Z 14006KT 9000 SCT018 27/24 Q1010 NOSIG=