29/06/2020 16:00:00Z
METAR WADY 291600Z AUTO 16003KT 130V190 9999 BKN019 BKN025 OVC049 26/24 Q1013=