30/06/2020 10:30:00Z
METAR WAEE 301030Z 12004KT 9000 FEW016CB SCT018 28/25 Q1009 NOSIG=