08/07/2020 02:00:00Z
METAR WAEE 080200Z AUTO 13006KT 9999NDV NCD 29/25 Q1009=