29/06/2020 16:00:00Z
METAR WAEL 291600Z 00000KT 7000 FEW017CB SCT018 24/23 Q1010=