08/07/2020 01:00:00Z
METAR WAEL 080100Z 00000KT 6000 -TSRA FEW016CB SCT017 25/25 Q1010=