08/07/2020 02:00:00Z
METAR WAES 080200Z 15007KT 8000 SCT019 29/25 Q1009 NOSIG=