08/07/2020 02:00:00Z
METAR WAEW 080200Z 14003KT 8000 FEW014CB FEW016 28/25 Q1008 RMKS CB AND RA TO SE,S,AND SW=