29/06/2020 16:00:00Z
METAR WAEW 291600Z 01004KT 9000 FEW020 BKN110 25/23 Q1010=