29/06/2020 15:00:00Z
METAR WAFF 291500Z 18002KT 8000 FEW019 25/23 Q1012 NOSIG=