29/06/2020 15:00:00Z
METAR WAFL 291500Z 15002KT 8000 FEW020 24/23 Q1010=