29/06/2020 16:00:00Z
METAR WAFM 291600Z 03004KT 8000 FEW017 BKN090 25/23 Q1011=