29/06/2020 16:00:00Z
METAR WAFP 291600Z 00000KT 8000 FEW017 25/24 Q1011 NOSIG=