29/06/2020 12:00:00Z
METAR WAFT 291200Z 00000KT 8000 SCT014 22/20 Q1011=