30/06/2020 10:30:00Z
METAR WAGG 301030Z 16003KT 9999 SCT012TCU 30/25 Q1009=