29/06/2020 15:00:00Z
METAR WAGG 291500Z 00000KT 8000 SCT012 26/25 Q1011=