08/07/2020 02:00:00Z
METAR WAGG 080200Z 09004KT 9999 BKN012 29/26 Q1011=