29/06/2020 13:00:00Z
METAR WAGI 291300Z 14002KT 6000 SCT012 27/23 Q1010 NOSIG=