08/07/2020 02:00:00Z
METAR WAGI 080200Z 10005KT 9000 SCT013 29/25 Q1009 NOSIG=