29/06/2020 16:00:00Z
METAR WAGK 291600Z 00000KT 6000 SCT012 26/25 Q1010=