30/06/2020 10:30:00Z
METAR WAGK 301030Z 00000KT 9999 FEW015 32/24 Q1007=