29/06/2020 15:00:00Z
METAR WAGM 291500Z 00000KT 7000 FEW015CB 25/24 Q1011=