29/06/2020 16:00:00Z
METAR WAGS 291600Z 14003KT 7000 FEW008TCU SCT009 26/24 Q1010 NOSIG=