29/06/2020 12:00:00Z
METAR WAHH 291200Z 02002KT 7000 FEW020 26/22 Q1010 NOSIG=