08/07/2020 02:00:00Z
METAR WAHH 080200Z 15004KT 7000 FEW020 27/21 Q1011 NOSIG=