30/06/2020 10:00:00Z
METAR WAHH 301000Z 18003KT 8000 FEW018 28/23 Q1008 NOSIG=