08/07/2020 02:00:00Z
METAR WAHL 080200Z 13008KT 9000 SCT012 27/24 Q1011 NOSIG=