29/06/2020 09:00:00Z
METAR WAHL 290900Z 14015KT 090V160 9999 SCT015 28/23 Q1009 NOSIG=