30/06/2020 09:00:00Z
METAR WAHQ 300900Z 00000KT 8000 FEW015 33/24 Q1008 NOSIG=