29/06/2020 12:00:00Z
METAR WAHQ 291200Z 21004KT 7000 NSC 28/22 Q1010 NOSIG=