30/06/2020 10:30:00Z
METAR WAHS 301030Z 36009KT 7000 FEW014 29/24 Q1008=