29/06/2020 16:00:00Z
METAR WAHS 291600Z AUTO 15003KT 6000 NCD 27/22 Q1010=