08/07/2020 01:00:00Z
METAR WAJI 080100Z 12005KT 060V170 9999 FEW015 30/24 Q1009=