29/06/2020 06:00:00Z
METAR WAJI 290600Z 00000KT 9999 FEW014CB FEW015 31/23 Q1008=