29/06/2020 15:30:00Z
METAR WAJJ 291530Z 00000KT 9999 FEW012 24/22 Q1009 NOSIG=