29/06/2020 09:00:00Z
METAR WAKK 290900Z 11007KT 8000 BKN015 27/23 Q1010=