30/06/2020 10:00:00Z
METAR WAKK 301000Z 11003KT 8000 FEW016 25/21 Q1010=