29/06/2020 03:00:00Z
METAR WAKT 290300Z VRB02KT 5000 BKN008 25/23 Q1011=