08/07/2020 02:00:00Z
METAR WALL 080200Z 22006KT 9999 FEW018CB SCT020 28/26 Q1009 RMK CB TO NE AND S=