08/07/2020 02:00:00Z
METAR WALS 080200Z VRB03KT 210V270 7000 FEW015CB SCT016 27/25 Q1010 RMK CB TO E=