30/06/2020 10:30:00Z
METAR WALS 301030Z AUTO 15002KT //// ////// 28/26 Q1008=