29/06/2020 09:30:00Z
METAR WALS 290930Z 09004KT 010V070 9999 FEW018 28/25 Q1008=