29/06/2020 16:00:00Z
METAR WAMG 291600Z AUTO 22001KT 1600 R09/P2000N R27/P2000N BR OVC001 23/23 Q1009=