30/06/2020 10:30:00Z
METAR WAMG 301030Z AUTO VRB02KT 9999 OVC031 28/25 Q1007=