29/06/2020 12:00:00Z
METAR WAMH 291200Z 23003KT 8000 FEW019 25/24 Q1010=