08/07/2020 00:00:00Z
METAR WAMH 080000Z 23003KT 9000 FEW019 28/25 Q1008=