29/06/2020 16:00:00Z
METAR WAMM 291600Z VRB01KT 9000 SCT020 23/22 Q1011 NOSIG=