08/07/2020 02:00:00Z
METAR WAOK 080200Z 19003KT 6000 -TSRA FEW014CB BKN014 23/23 Q1010 RMK CB TO S=