30/06/2020 10:00:00Z
METAR WAOK 301000Z 15002KT 8000 BKN014 29/23 Q1008 NOSIG=