29/06/2020 12:00:00Z
METAR WAPA 291200Z 00000KT 8000 RA SCT017 BKN057 24/24 Q1011=