08/07/2020 02:00:00Z
METAR WAPA 080200Z 16004KT 9999 SCT018 27/25 Q1010=