30/06/2020 09:00:00Z
METAR WAPC 300900Z 11010KT 7000 SCT018 27/23 Q1009=