29/06/2020 16:00:00Z
METAR WAPC 291600Z 03004KT 8000 BKN019 26/23 Q1010=