29/06/2020 15:00:00Z
METAR WAPL 291500Z 14005KT 3000 -RA BKN017 25/24 Q1011=