08/07/2020 02:00:00Z
METAR WAPP 080200Z 11004KT 040V200 9000 -RA BKN017 27/23 Q1010 NOSIG=