29/06/2020 16:00:00Z
METAR WAPP 291600Z 33004KT 9999 SCT017 24/24 Q1011 NOSIG=