29/06/2020 10:00:00Z
METAR WAQA 291000Z 00000KT 6000 RA FEW012 26/24 Q1008=