29/06/2020 09:00:00Z
METAR WAQJ 290900Z 30002KT 6000 SCT013 22/20 Q1015=