30/06/2020 09:30:00Z
METAR WAQT 300930Z 13003KT 9000 BKN017 28/26 Q1009=