29/06/2020 15:00:00Z
METAR WAQT 291500Z 21002KT 6000 FEW020 24/24 Q1012=