30/06/2020 06:00:00Z
METAR WARA 300600Z 20004KT 7000 SCT015 28/17 Q1013 NOSIG=