29/06/2020 06:00:00Z
METAR WARA 290600Z 21004KT 6000 SCT015 28/20 Q1013 NOSIG=