30/06/2020 06:00:00Z
METAR WARE 300600Z 20007KT 9999 SCT018 30/23 Q1010 NOSIG=