08/07/2020 02:00:00Z
METAR WARE 080200Z 29008KT 8000 FEW019 26/24 Q1012 NOSIG=