08/07/2020 02:00:00Z
METAR WARI 080200Z 20013KT 9000 FEW020 28/22 Q1011 NOSIG=