29/06/2020 15:00:00Z
METAR WARI 291500Z 21010KT 8000 NSC 25/21 Q1012 NOSIG=