30/06/2020 10:00:00Z
METAR WARR 301000Z 05010KT 9999 FEW020 29/21 Q1008 NOSIG=