08/07/2020 02:00:00Z
METAR WARR 080200Z 06004KT 020V100 9999 FEW020 29/23 Q1010 NOSIG=