08/07/2020 02:00:00Z
METAR WASF 080200Z 18003KT 8000 -VCSH FEW009CB SCT010 27/23 Q1011=