30/06/2020 10:00:00Z
METAR WASF 301000Z 03002KT 4000 -VCSH FEW010CB SCT011 24/23 Q1011=