29/06/2020 15:00:00Z
METAR WASF 291500Z 02003KT 4000 FEW010CB SCT011 24/23 Q1012=