29/06/2020 15:00:00Z
METAR WASK 291500Z 00000KT 6000 VCSH FEW015 26/23 Q1010=