30/06/2020 10:00:00Z
METAR WASS 301000Z 08004KT 5000 -RA FEW010CB BKN012 26/25 Q1009=