29/06/2020 05:00:00Z
METAR WATA 290500Z 17014KT 9999 SCT017 31/22 Q1011 NOSIG=