08/07/2020 02:00:00Z
METAR WATC 080200Z 19004KT 9999 SCT017 31/21 Q1012 NOSIG=