29/06/2020 15:00:00Z
METAR WATC 291500Z 22006KT 8000 FEW017 25/21 Q1013 NOSIG=