08/07/2020 02:00:00Z
METAR WATE 080200Z 13005KT 7000 HZ SCT017 28/26 Q1011=