30/06/2020 09:00:00Z
METAR WATE 300900Z 13009KT 8000 SCT018 28/25 Q1010 NOSIG=