29/06/2020 09:00:00Z
METAR WATE 290900Z 13007KT 8000 BKN017 27/25 Q1010 NOSIG=