29/06/2020 15:00:00Z
METAR WATG 291500Z 00000KT 8000 SCT015 18/18 Q1010 NOSIG=