29/06/2020 10:00:00Z
METAR WATL 291000Z 00000KT 9999 FEW020 28/22 Q1010 NOSIG=