29/06/2020 15:00:00Z
METAR WATM 291500Z 19002KT 8000 FEW020 24/22 Q1012 NOSIG=