29/06/2020 16:00:00Z
METAR WATR 291600Z 12005KT 9999 SCT020 24/21 Q1018 NOSIG=