07/07/2020 22:30:00Z
METAR WATS 072230Z 12007KT 9000 FEW015 25/22 Q1011 NOSIG=