29/06/2020 16:00:00Z
METAR WATS 291600Z 13006KT 6000 FEW015 26/23 Q1013 NOSIG=