30/06/2020 10:30:00Z
METAR WATT 301030Z 13009KT 8000 FEW018 26/21 Q1011 NOSIG=