29/06/2020 09:00:00Z
METAR WAVV 290900Z 08002KT 6000 VCSH BKN012 19/16 Q1019=