08/07/2020 02:00:00Z
METAR WAWB 080200Z 07010KT 9999 FEW019 29/23 Q1012=