29/06/2020 13:00:00Z
METAR WAWP 291300Z 00000KT 8000 FEW019 26/23 Q1011 NOSIG=