08/07/2020 02:00:00Z
METAR WAWP 080200Z 00000KT 9999 FEW020 29/22 Q1010 NOSIG=