29/06/2020 12:00:00Z
METAR WAWW 291200Z 27002KT 8000 FEW016 25/24 Q1012 RMK RA TO SW AREA=