29/06/2020 12:00:00Z
METAR WAYE 291200Z 00000KT 1000 -RA BKN005 18/15 Q1011 NOSIG=