30/06/2020 10:00:00Z
METAR WAYE 301000Z 00000KT 5000 FEW010 21/17 Q1008=