30/06/2020 09:00:00Z
METAR WAYY 300900Z 12003KT 7000 FEW015CB BKN016 25/24 Q1010 RMK CB TO N=