29/06/2020 16:00:00Z
METAR WIBB 291600Z 00000KT 7000 FEW015 27/24 Q1008=