08/07/2020 02:00:00Z
METAR WIBJ 080200Z 00000KT 7000 SCT015 26/24 Q1010=