30/06/2020 10:00:00Z
METAR WIBJ 301000Z 19006KT 8000 SCT015 32/24 Q1006=