30/06/2020 10:30:00Z
METAR WICA 301030Z AUTO 08004KT //// NCD 29/25 Q1008=