29/06/2020 12:30:00Z
METAR WICA 291230Z AUTO 12002KT 9999 NCD 26/22 Q1009=