29/06/2020 12:00:00Z
METAR WICM 291200Z 00000KT 5000 HZ SCT015 25/22 Q1013 NOSIG=