29/06/2020 12:00:00Z
METAR WICS 291200Z 00000KT 5000 HZ FEW018 25/24 Q1008 NOSIG=