30/06/2020 10:30:00Z
METAR WIDO 301030Z AUTO VRB02KT //// SCT023 BKN031 29/24 Q1007=