29/06/2020 13:00:00Z
METAR WIDO 291300Z AUTO 35002KT 9999 NCD 26/25 Q1009=