08/07/2020 01:57:00Z
METAR WIDS 080200Z 23002KT 8000 SCT017 26/26 Q1010 NOSIG=