29/06/2020 11:00:00Z
METAR WIDS 291100Z 09002KT 9000 SCT017 29/27 Q1007 NOSIG=