29/06/2020 09:00:00Z
METAR WIDT 290900Z 11008KT 8000 BKN300 31/25 Q1006=