08/07/2020 02:00:00Z
METAR WIEE 080200Z 33001KT 9999 SCT020 27/23 Q1010=