29/06/2020 16:00:00Z
METAR WIGG 291600Z 11002KT 8000 FEW015CB FEW020 27/25 Q1009 NOSIG=