29/06/2020 03:00:00Z
METAR WIHJ 290300Z 00000KT 3000 HZ NSC 29/23 Q1010 NOSIG=