29/06/2020 16:00:00Z
METAR WIII 291600Z 13005KT 6000 FEW020 28/23 Q1010 NOSIG=