08/07/2020 02:00:00Z
METAR WIII 080200Z VRB03KT 8000 FEW021 30/22 Q1010 NOSIG=