30/06/2020 10:30:00Z
METAR WIII 301030Z 06012KT 8000 FEW020 30/23 Q1008 NOSIG=