29/06/2020 16:00:00Z
METAR WIJI 291600Z 00000KT 5000 SCT013 23/21 Q1014=