08/07/2020 02:00:00Z
METAR WIJI 080200Z 28002KT 3000 BKN008 20/19 Q1015 RMK RE RA=