29/06/2020 16:30:00Z
METAR WIJJ 291630Z 15003KT 6000 BKN015 26/25 Q1010 NOSIG=