29/06/2020 16:00:00Z
METAR WIKK 291600Z 16004KT 7000 FEW020 26/23 Q1009 NOSIG=