08/07/2020 02:00:00Z
METAR WIKT 080200Z 15006KT 7000 FEW020CB SCT020 29/27 Q1009=