29/06/2020 15:00:00Z
METAR WILL 291500Z 00000KT 4000 BR FEW016 26/23 Q1011 NOSIG=