29/06/2020 15:00:00Z
METAR WIMA 291500Z 21002KT 5000 HZ FEW018 27/25 Q1009=