08/07/2020 02:00:00Z
METAR WIMB 080200Z 22004KT 6000 -RA FEW015CB SCT016 25/23 Q1011 RETS RMK CB OVER THE FIELD=