30/06/2020 10:30:00Z
METAR WIME 301030Z 15005KT 8000 TS FEW017CB SCT018 29/24 Q1007=