29/06/2020 16:30:00Z
METAR WIME 291630Z 34001KT 8000 FEW020 25/22 Q1010=