30/06/2020 10:30:00Z
METAR WIMM 301030Z 06007KT 040V130 9999 TS FEW016CB SCT017 30/26 Q1005 NOSIG RMK CB TO SE=