29/06/2020 16:00:00Z
METAR WIMM 291600Z 14005KT 6000 FEW018 28/27 Q1008 NOSIG=