29/06/2020 09:00:00Z
METAR WIMN 290900Z 16007KT 8000 BKN005 24/15 Q1017 NOSIG=