30/06/2020 10:30:00Z
METAR WIMS 301030Z AUTO 20004KT 160V250 9999 BKN033 BKN048 30/26 Q1006=