29/06/2020 16:30:00Z
METAR WIOK 291630Z AUTO 11007KT //// ////// 26/24 Q1009=