30/06/2020 10:30:00Z
METAR WIOK 301030Z AUTO 16004KT //// ////// 28/26 Q1008=