08/07/2020 02:00:00Z
METAR WIOK 080200Z 09006KT 060V120 9999 FEW012 28/26 Q1010 NOSIG=