29/06/2020 16:30:00Z
METAR WIOO 291630Z 00000KT 6000 SCT012 28/24 Q1009 NOSIG=