29/06/2020 12:00:00Z
METAR WIOP 291200Z 00000KT 5000 -RA FEW014CB SCT013 28/25 Q1009=