30/06/2020 10:30:00Z
METAR WIOS 301030Z 00000KT 5000 -TSRA FEW012CB SCT013 24/24 Q1008 NOSIG RMK CB AT SE=