08/07/2020 02:00:00Z
METAR WIPP 080200Z AUTO 21004KT 180V250 9999NDV FEW011 27/M35 Q1010=