29/06/2020 16:30:00Z
METAR WIRR 291630Z AUTO VRB02KT 2600 BR SCT060 25/25 Q1011=