29/06/2020 16:00:00Z
METAR WITC 291600Z 02001KT 8000 FEW022 26/25 Q1010=