30/06/2020 00:00:00Z
METAR WITN 300000Z 00000KT 7000 FEW020 24/23 Q1011 NOSIG=