08/07/2020 02:00:00Z
METAR WITT 080200Z 30010KT 8000 SCT018 27/23 Q1010=